[{"OBJECT_NAME":"EMISAT","OBJECT_ID":"2019-018A","EPOCH":"2026-03-09T23:07:44.271840","MEAN_MOTION":14.43625084,"ECCENTRICITY":0.00191389,"INCLINATION":98.4768,"RA_OF_ASC_NODE":128.257,"ARG_OF_PERICENTER":153.4906,"MEAN_ANOMALY":206.7268,"EPHEMERIS_TYPE":0,"CLASSIFICATION_TYPE":"U","NORAD_CAT_ID":44078,"ELEMENT_SET_NO":999,"REV_AT_EPOCH":36574,"BSTAR":5.8527741e-5,"MEAN_MOTION_DOT":1.55e-6,"MEAN_MOTION_DDOT":0},{"OBJECT_NAME":"ORBCOMM FM05","OBJECT_ID":"1997-084F","EPOCH":"2026-03-09T07:03:47.993472","MEAN_MOTION":14.47088809,"ECCENTRICITY":0.00025093,"INCLINATION":45.0132,"RA_OF_ASC_NODE":174.0944,"ARG_OF_PERICENTER":168.9328,"MEAN_ANOMALY":191.158,"EPHEMERIS_TYPE":0,"CLASSIFICATION_TYPE":"U","NORAD_CAT_ID":25117,"ELEMENT_SET_NO":999,"REV_AT_EPOCH":47899,"BSTAR":0.00056963608,"MEAN_MOTION_DOT":1.951e-5,"MEAN_MOTION_DDOT":0}]
